ONEWEB-0043             
1 45149U 20008U   23235.05772855 -.00000862  00000+0 -25059-2 0  9997
2 45149  87.8806 240.6522 0001327  96.4495 263.6783 13.10375824174183
ONEWEB-0044             
1 45150U 20008V   23235.08638974  .00000703  00000+0  19773-2 0  9993
2 45150  87.8802 240.6440 0001671 100.1932 259.9383 13.10373269174478
ONEWEB-0045             
1 45151U 20008W   23235.07101773 -.00000218  00000+0 -65084-3 0  9995
2 45151  87.8727 225.4997 0002184  89.6200 270.5178 13.11414210176300
ONEWEB-0047             
1 45152U 20008X   23234.08579732  .00000644  00000+0  18088-2 0  9992
2 45152  87.8801 240.8440 0001946  89.3052 270.8298 13.10377346174081
ONEWEB-0048             
1 45153U 20008Y   23234.08101983  .00000609  00000+0  17072-2 0  9995
2 45153  87.8805 240.8543 0001900  87.6042 272.5302 13.10374013173677
ONEWEB-0049             
1 45154U 20008Z   23235.07525291  .00000507  00000+0  14149-2 0  9997
2 45154  87.8811 240.6246 0001812  81.9091 278.2242 13.10376285174036
ONEWEB-0051             
1 45155U 20008AA  23235.06889904 -.00000182  00000+0 -54915-3 0  9998
2 45155  87.8894 225.4993 0002212  87.7763 272.3618 13.11415542176982
ONEWEB-0052             
1 45156U 20008AB  23235.07207538  .00000347  00000+0  95815-3 0  9992
2 45156  87.8813 240.6089 0001349  66.4179 293.7089 13.10374020173928
